start=new Date('2022-06-17T00:00:00.000Z').valueOf();
sats=[{"RCS_SIZE":"LARGE","SITE":"AFETR","INCLINATION":"53.0559","RA_OF_ASC_NODE":"145.5024","MEAN_MOTION_DOT":"-0.00001707","REV_AT_EPOCH":"12456","OBJECT_NAME":"STARLINK-1258","CLASSIFICATION_TYPE":"U","SEMIMAJOR_AXIS":"6925.365","CENTER_NAME":"EARTH","ELEMENT_SET_NO":"999","DECAY_DATE":null,"LAUNCH_DATE":"2020-03-18","TIME_SYSTEM":"UTC","TLE_LINE1":"1 45381U 20019X   22166.65934520 -.00001707  00000-0 -95710-4 0  9997","MEAN_MOTION":"15.06394766","FILE":"3496999","APOAPSIS":"548.336","COUNTRY_CODE":"US","PERIOD":"95.592","EPOCH":"2022-06-15T15:49:27.425280","BSTAR":"-0.00009571000000","GP_ID":"206234164","PERIAPSIS":"546.124","OBJECT_ID":"2020-019X","OBJECT_TYPE":"PAYLOAD","REF_FRAME":"TEME","NORAD_CAT_ID":"45381","EPHEMERIS_TYPE":"0","ARG_OF_PERICENTER":"78.1680","MEAN_ANOMALY":"281.9488","MEAN_ELEMENT_THEORY":"SGP4","TLE_LINE2":"2 45381  53.0559 145.5024 0001597  78.1680 281.9488 15.06394766124568","MEAN_MOTION_DDOT":"0.0000000000000","ECCENTRICITY":"0.00015970"},{"OBJECT_NAME":"STARLINK-1264","CLASSIFICATION_TYPE":"U","SEMIMAJOR_AXIS":"6925.330","CENTER_NAME":"EARTH","ELEMENT_SET_NO":"999","DECAY_DATE":null,"TIME_SYSTEM":"UTC","LAUNCH_DATE":"2020-03-18","TLE_LINE1":"1 45382U 20019Y   22166.96801382  .00000103  00000-0  25782-4 0  9990","RCS_SIZE":"LARGE","SITE":"AFETR","INCLINATION":"53.0524","RA_OF_ASC_NODE":"144.1044","REV_AT_EPOCH":"12443","MEAN_MOTION_DOT":"0.00000103","GP_ID":"206286167","OBJECT_ID":"2020-019Y","PERIAPSIS":"546.053","OBJECT_TYPE":"PAYLOAD","REF_FRAME":"TEME","NORAD_CAT_ID":"45382","EPHEMERIS_TYPE":"0","MEAN_ANOMALY":"299.1550","MEAN_ELEMENT_THEORY":"SGP4","ARG_OF_PERICENTER":"60.9604","TLE_LINE2":"2 45382  53.0524 144.1044 0001650  60.9604 299.1550 15.06405900124433","MEAN_MOTION_DDOT":"0.0000000000000","ECCENTRICITY":"0.00016500","MEAN_MOTION":"15.06405900","FILE":"3497002","APOAPSIS":"548.338","COUNTRY_CODE":"US","PERIOD":"95.592","EPOCH":"2022-06-15T23:13:56.394048","BSTAR":"0.00002578200000"},{"SEMIMAJOR_AXIS":"6925.323","CENTER_NAME":"EARTH","OBJECT_NAME":"STARLINK-1266","CLASSIFICATION_TYPE":"U","TIME_SYSTEM":"UTC","LAUNCH_DATE":"2020-03-18","TLE_LINE1":"1 45383U 20019Z   22166.65197296  .00001731  00000-0  13507-3 0  9998","ELEMENT_SET_NO":"999","DECAY_DATE":null,"SITE":"AFETR","RCS_SIZE":"LARGE","REV_AT_EPOCH":"12456","MEAN_MOTION_DOT":"0.00001731","INCLINATION":"53.0547","RA_OF_ASC_NODE":"145.5426","NORAD_CAT_ID":"45383","EPHEMERIS_TYPE":"0","MEAN_ANOMALY":"287.8721","ARG_OF_PERICENTER":"72.2448","MEAN_ELEMENT_THEORY":"SGP4","GP_ID":"206235665","OBJECT_ID":"2020-019Z","PERIAPSIS":"546.049","OBJECT_TYPE":"PAYLOAD","REF_FRAME":"TEME","MEAN_MOTION_DDOT":"0.0000000000000","ECCENTRICITY":"0.00016450","TLE_LINE2":"2 45383  53.0547 145.5426 0001645  72.2448 287.8721 15.06408187124562","MEAN_MOTION":"15.06408187","PERIOD":"95.592","EPOCH":"2022-06-15T15:38:50.463744","BSTAR":"0.00013507000000","FILE":"3496999","APOAPSIS":"548.328","COUNTRY_CODE":"US"},{"ECCENTRICITY":"0.00017970","MEAN_MOTION_DDOT":"0.0000000000000","TLE_LINE2":"2 45384  53.0545 145.5843 0001797  66.6849 293.4329 15.06409041124561","MEAN_ANOMALY":"293.4329","ARG_OF_PERICENTER":"66.6849","MEAN_ELEMENT_THEORY":"SGP4","NORAD_CAT_ID":"45384","EPHEMERIS_TYPE":"0","OBJECT_TYPE":"PAYLOAD","REF_FRAME":"TEME","GP_ID":"206235916","PERIAPSIS":"545.941","OBJECT_ID":"2020-019AA","BSTAR":"0.00013052000000","PERIOD":"95.592","EPOCH":"2022-06-15T15:21:32.760864","APOAPSIS":"548.430","FILE":"3496999","COUNTRY_CODE":"US","MEAN_MOTION":"15.06409041","TLE_LINE1":"1 45384U 20019AA  22166.63996251  .00001663  00000-0  13052-3 0  9994","TIME_SYSTEM":"UTC","LAUNCH_DATE":"2020-03-18","ELEMENT_SET_NO":"999","DECAY_DATE":null,"CENTER_NAME":"EARTH","SEMIMAJOR_AXIS":"6925.321","CLASSIFICATION_TYPE":"U","OBJECT_NAME":"STARLINK-1267","REV_AT_EPOCH":"12456","MEAN_MOTION_DOT":"0.00001663","RA_OF_ASC_NODE":"145.5843","INCLINATION":"53.0545","SITE":"AFETR","RCS_SIZE":"LARGE"},{"SITE":"AFETR","RCS_SIZE":"LARGE","REV_AT_EPOCH":"12461","MEAN_MOTION_DOT":"-0.00000041","INCLINATION":"53.0546","RA_OF_ASC_NODE":"144.0895","SEMIMAJOR_AXIS":"6925.366","CENTER_NAME":"EARTH","OBJECT_NAME":"STARLINK-1272","CLASSIFICATION_TYPE":"U","TIME_SYSTEM":"UTC","LAUNCH_DATE":"2020-03-18","TLE_LINE1":"1 45386U 20019AC  22166.97633272 -.00000041  00000-0  16136-4 0  9991","ELEMENT_SET_NO":"999","DECAY_DATE":null,"MEAN_MOTION":"15.06394208","PERIOD":"95.593","EPOCH":"2022-06-15T23:25:55.147008","BSTAR":"0.00001613600000","FILE":"3497002","APOAPSIS":"548.320","COUNTRY_CODE":"US","NORAD_CAT_ID":"45386","EPHEMERIS_TYPE":"0","MEAN_ELEMENT_THEORY":"SGP4","MEAN_ANOMALY":"299.7234","ARG_OF_PERICENTER":"60.3911","GP_ID":"206285419","PERIAPSIS":"546.143","OBJECT_ID":"2020-019AC","OBJECT_TYPE":"PAYLOAD","REF_FRAME":"TEME","MEAN_MOTION_DDOT":"0.0000000000000","ECCENTRICITY":"0.00015720","TLE_LINE2":"2 45386  53.0546 144.0895 0001572  60.3911 299.7234 15.06394208124615"},{"ELEMENT_SET_NO":"999","DECAY_DATE":null,"TLE_LINE1":"1 45387U 20019AD  22166.66671503 -.00000417  00000-0 -91124-5 0  9996","LAUNCH_DATE":"2020-03-18","TIME_SYSTEM":"UTC","CLASSIFICATION_TYPE":"U","OBJECT_NAME":"STARLINK-1274","CENTER_NAME":"EARTH","SEMIMAJOR_AXIS":"6925.376","RA_OF_ASC_NODE":"145.4655","INCLINATION":"53.0539","REV_AT_EPOCH":"12456","MEAN_MOTION_DOT":"-0.00000417","RCS_SIZE":"LARGE","SITE":"AFETR","TLE_LINE2":"2 45387  53.0539 145.4655 0001811  64.9840 295.1336 15.06390917124564","ECCENTRICITY":"0.00018110","MEAN_MOTION_DDOT":"0.0000000000000","OBJECT_TYPE":"PAYLOAD","REF_FRAME":"TEME","GP_ID":"206234914","PERIAPSIS":"545.987","OBJECT_ID":"2020-019AD","MEAN_ANOMALY":"295.1336","ARG_OF_PERICENTER":"64.9840","MEAN_ELEMENT_THEORY":"SGP4","NORAD_CAT_ID":"45387","EPHEMERIS_TYPE":"0","FILE":"3496999","APOAPSIS":"548.496","COUNTRY_CODE":"US","BSTAR":"-0.00000911240000","PERIOD":"95.593","EPOCH":"2022-06-15T16:00:04.178592","MEAN_MOTION":"15.06390917"},{"TIME_SYSTEM":"UTC","LAUNCH_DATE":"2020-03-18","TLE_LINE1":"1 45388U 20019AE  22166.96711928  .00001487  00000-0  11874-3 0  9994","ELEMENT_SET_NO":"999","DECAY_DATE":null,"SEMIMAJOR_AXIS":"6925.350","CENTER_NAME":"EARTH","OBJECT_NAME":"STARLINK-1280","CLASSIFICATION_TYPE":"U","MEAN_MOTION_DOT":"0.00001487","REV_AT_EPOCH":"12432","INCLINATION":"53.0540","RA_OF_ASC_NODE":"164.1138","SITE":"AFETR","RCS_SIZE":"LARGE","MEAN_MOTION_DDOT":"0.0000000000000","ECCENTRICITY":"0.00016250","TLE_LINE2":"2 45388  53.0540 164.1138 0001625  65.7446 294.3712 15.06399635124324","NORAD_CAT_ID":"45388","EPHEMERIS_TYPE":"0","MEAN_ANOMALY":"294.3712","MEAN_ELEMENT_THEORY":"SGP4","ARG_OF_PERICENTER":"65.7446","GP_ID":"206286415","PERIAPSIS":"546.089","OBJECT_ID":"2020-019AE","OBJECT_TYPE":"PAYLOAD","REF_FRAME":"TEME","PERIOD":"95.592","EPOCH":"2022-06-15T23:12:39.105792","BSTAR":"0.00011874000000","FILE":"3497002","APOAPSIS":"548.340","COUNTRY_CODE":"US","MEAN_MOTION":"15.06399635"},{"SITE":"AFETR","RCS_SIZE":"LARGE","MEAN_MOTION_DOT":"0.00000255","REV_AT_EPOCH":"12461","RA_OF_ASC_NODE":"144.2202","INCLINATION":"53.0556","CENTER_NAME":"EARTH","SEMIMAJOR_AXIS":"6925.339","CLASSIFICATION_TYPE":"U","OBJECT_NAME":"STARLINK-1283","TLE_LINE1":"1 45389U 20019AF  22166.94683170  .00000255  00000-0  36002-4 0  9993","TIME_SYSTEM":"UTC","LAUNCH_DATE":"2020-03-18","DECAY_DATE":null,"ELEMENT_SET_NO":"999","MEAN_MOTION":"15.06403212","BSTAR":"0.00003600200000","EPOCH":"2022-06-15T22:43:26.258880","PERIOD":"95.592","COUNTRY_CODE":"US","APOAPSIS":"548.610","FILE":"3497002","MEAN_ANOMALY":"305.6781","ARG_OF_PERICENTER":"54.4397","MEAN_ELEMENT_THEORY":"SGP4","EPHEMERIS_TYPE":"0","NORAD_CAT_ID":"45389","REF_FRAME":"TEME","OBJECT_TYPE":"PAYLOAD","PERIAPSIS":"545.798","OBJECT_ID":"2020-019AF","GP_ID":"206285170","ECCENTRICITY":"0.00020300","MEAN_MOTION_DDOT":"0.0000000000000","TLE_LINE2":"2 45389  53.0556 144.2202 0002030  54.4397 305.6781 15.06403212124615"},{"LAUNCH_DATE":"2020-03-18","TIME_SYSTEM":"UTC","TLE_LINE1":"1 45390U 20019AG  22166.65565896  .00000407  00000-0  46267-4 0  9990","DECAY_DATE":null,"ELEMENT_SET_NO":"999","SEMIMAJOR_AXIS":"6925.345","CENTER_NAME":"EARTH","OBJECT_NAME":"STARLINK-1284","CLASSIFICATION_TYPE":"U","REV_AT_EPOCH":"12456","MEAN_MOTION_DOT":"0.00000407","INCLINATION":"53.0526","RA_OF_ASC_NODE":"145.5125","SITE":"AFETR","RCS_SIZE":"LARGE","MEAN_MOTION_DDOT":"0.0000000000000","ECCENTRICITY":"0.00022820","TLE_LINE2":"2 45390  53.0526 145.5125 0002282  55.0435 305.0768 15.06401007124564","EPHEMERIS_TYPE":"0","NORAD_CAT_ID":"45390","MEAN_ANOMALY":"305.0768","ARG_OF_PERICENTER":"55.0435","MEAN_ELEMENT_THEORY":"SGP4","PERIAPSIS":"545.630","OBJECT_ID":"2020-019AG","GP_ID":"206234165","REF_FRAME":"TEME","OBJECT_TYPE":"PAYLOAD","EPOCH":"2022-06-15T15:44:08.934144","PERIOD":"95.592","BSTAR":"0.00004626700000","COUNTRY_CODE":"US","FILE":"3496999","APOAPSIS":"548.791","MEAN_MOTION":"15.06401007"},{"MEAN_MOTION":"15.06407299","COUNTRY_CODE":"US","FILE":"3496999","APOAPSIS":"548.290","EPOCH":"2022-06-15T16:04:00.069600","PERIOD":"95.592","BSTAR":"0.00000296180000","OBJECT_ID":"2020-019AH","PERIAPSIS":"546.092","GP_ID":"206234415","REF_FRAME":"TEME","OBJECT_TYPE":"PAYLOAD","EPHEMERIS_TYPE":"0","NORAD_CAT_ID":"45391","MEAN_ANOMALY":"285.4461","ARG_OF_PERICENTER":"74.6703","MEAN_ELEMENT_THEORY":"SGP4","TLE_LINE2":"2 45391  53.0549 145.4474 0001587  74.6703 285.4461 15.06407299124298","MEAN_MOTION_DDOT":"0.0000000000000","ECCENTRICITY":"0.00015870","RCS_SIZE":"LARGE","SITE":"AFETR","INCLINATION":"53.0549","RA_OF_ASC_NODE":"145.4474","REV_AT_EPOCH":"12429","MEAN_MOTION_DOT":"-0.00000237","OBJECT_NAME":"STARLINK-1289","CLASSIFICATION_TYPE":"U","SEMIMAJOR_AXIS":"6925.326","CENTER_NAME":"EARTH","DECAY_DATE":null,"ELEMENT_SET_NO":"999","TIME_SYSTEM":"UTC","LAUNCH_DATE":"2020-03-18","TLE_LINE1":"1 45391U 20019AH  22166.66944525 -.00000237  00000-0  29618-5 0  9996"}];
